[
  {
    "CCSDS_OMM_VERS": "3.0",
    "COMMENT": "GENERATED VIA SPACE-TRACK.ORG API",
    "CREATION_DATE": "2009-04-16T07:21:11",
    "ORIGINATOR": "18 SPCS",
    "OBJECT_NAME": "IRIDIUM 33 DEB",
    "OBJECT_ID": "1997-051HE",
    "CENTER_NAME": "EARTH",
    "REF_FRAME": "TEME",
    "TIME_SYSTEM": "UTC",
    "MEAN_ELEMENT_THEORY": "SGP4",
    "EPOCH": "2009-04-16T10:49:03.753695",
    "MEAN_MOTION": "15.16931340",
    "ECCENTRICITY": "0.01252810",
    "INCLINATION": "86.7392",
    "RA_OF_ASC_NODE": "96.1164",
    "ARG_OF_PERICENTER": "133.0718",
    "MEAN_ANOMALY": "228.2714",
    "EPHEMERIS_TYPE": "0",
    "CLASSIFICATION_TYPE": "U",
    "NORAD_CAT_ID": "34513",
    "ELEMENT_SET_NO": "999",
    "REV_AT_EPOCH": "823",
    "BSTAR": "0.22256000000000",
    "MEAN_MOTION_DOT": "0.05373570",
    "MEAN_MOTION_DDOT": "0.0000000000000",
    "SEMIMAJOR_AXIS": "6893.262",
    "PERIOD": "94.928",
    "APOAPSIS": "601.487",
    "PERIAPSIS": "428.768",
    "OBJECT_TYPE": "DEBRIS",
    "RCS_SIZE": "SMALL",
    "COUNTRY_CODE": "US",
    "LAUNCH_DATE": "1997-09-14",
    "SITE": "TTMTR",
    "DECAY_DATE": "2009-04-20",
    "FILE": "701721",
    "GP_ID": "70797422",
    "TLE_LINE0": "0 IRIDIUM 33 DEB",
    "TLE_LINE1": "1 34513U 97051HE  09106.45073789  .05373570  00000-0  22256+0 0  9993",
    "TLE_LINE2": "2 34513 086.7392 096.1164 0125281 133.0718 228.2714 15.16931340  8234"
  },
  {
    "CCSDS_OMM_VERS": "3.0",
    "COMMENT": "GENERATED VIA SPACE-TRACK.ORG API",
    "CREATION_DATE": "2009-07-17T12:09:36",
    "ORIGINATOR": "18 SPCS",
    "OBJECT_NAME": "IRIDIUM 33 DEB",
    "OBJECT_ID": "1997-051HF",
    "CENTER_NAME": "EARTH",
    "REF_FRAME": "TEME",
    "TIME_SYSTEM": "UTC",
    "MEAN_ELEMENT_THEORY": "SGP4",
    "EPOCH": "2009-07-17T01:15:06.758784",
    "MEAN_MOTION": "15.82192264",
    "ECCENTRICITY": "0.00156710",
    "INCLINATION": "86.3061",
    "RA_OF_ASC_NODE": "51.7874",
    "ARG_OF_PERICENTER": "49.3055",
    "MEAN_ANOMALY": "311.5079",
    "EPHEMERIS_TYPE": "0",
    "CLASSIFICATION_TYPE": "U",
    "NORAD_CAT_ID": "34514",
    "ELEMENT_SET_NO": "999",
    "REV_AT_EPOCH": "2091",
    "BSTAR": "0.04679800000000",
    "MEAN_MOTION_DOT": "0.11986926",
    "MEAN_MOTION_DDOT": "0.0000000000000",
    "SEMIMAJOR_AXIS": "6702.383",
    "PERIOD": "91.012",
    "APOAPSIS": "334.751",
    "PERIAPSIS": "313.745",
    "OBJECT_TYPE": "DEBRIS",
    "RCS_SIZE": "SMALL",
    "COUNTRY_CODE": "US",
    "LAUNCH_DATE": "1997-09-14",
    "SITE": "TTMTR",
    "DECAY_DATE": "2009-07-17",
    "FILE": "744637",
    "GP_ID": "72176554",
    "TLE_LINE0": "0 IRIDIUM 33 DEB",
    "TLE_LINE1": "1 34514U 97051HF  09198.05216156  .11986926  00000-0  46798-1 0  9999",
    "TLE_LINE2": "2 34514 086.3061 051.7874 0015671 049.3055 311.5079 15.82192264 20919"
  },
  {
    "CCSDS_OMM_VERS": "3.0",
    "COMMENT": "GENERATED VIA SPACE-TRACK.ORG API",
    "CREATION_DATE": "2015-12-27T17:12:44",
    "ORIGINATOR": "18 SPCS",
    "OBJECT_NAME": "IRIDIUM 33 DEB",
    "OBJECT_ID": "1997-051HG",
    "CENTER_NAME": "EARTH",
    "REF_FRAME": "TEME",
    "TIME_SYSTEM": "UTC",
    "MEAN_ELEMENT_THEORY": "SGP4",
    "EPOCH": "2015-12-26T01:51:34.507872",
    "MEAN_MOTION": "16.19365342",
    "ECCENTRICITY": "0.00232320",
    "INCLINATION": "86.2205",
    "RA_OF_ASC_NODE": "81.1140",
    "ARG_OF_PERICENTER": "359.4544",
    "MEAN_ANOMALY": "359.0447",
    "EPHEMERIS_TYPE": "0",
    "CLASSIFICATION_TYPE": "U",
    "NORAD_CAT_ID": "34515",
    "ELEMENT_SET_NO": "999",
    "REV_AT_EPOCH": "36415",
    "BSTAR": "0.00925280000000",
    "MEAN_MOTION_DOT": "0.17431211",
    "MEAN_MOTION_DDOT": "-0.0000012719000",
    "SEMIMAJOR_AXIS": "6599.412",
    "PERIOD": "88.923",
    "APOAPSIS": "236.609",
    "PERIAPSIS": "205.945",
    "OBJECT_TYPE": "DEBRIS",
    "RCS_SIZE": "SMALL",
    "COUNTRY_CODE": "US",
    "LAUNCH_DATE": "1997-09-14",
    "SITE": "TTMTR",
    "DECAY_DATE": "2015-12-26",
    "FILE": "1972281",
    "GP_ID": "102410878",
    "TLE_LINE0": "0 IRIDIUM 33 DEB",
    "TLE_LINE1": "1 34515U 97051HG  15360.07748273  .17431211 -12719-5  92528-2 0  9997",
    "TLE_LINE2": "2 34515  86.2205  81.1140 0023232 359.4544 359.0447 16.19365342364155"
  },
  {
    "CCSDS_OMM_VERS": "3.0",
    "COMMENT": "GENERATED VIA SPACE-TRACK.ORG API",
    "CREATION_DATE": "2012-08-27T15:56:23",
    "ORIGINATOR": "18 SPCS",
    "OBJECT_NAME": "IRIDIUM 33 DEB",
    "OBJECT_ID": "1997-051HH",
    "CENTER_NAME": "EARTH",
    "REF_FRAME": "TEME",
    "TIME_SYSTEM": "UTC",
    "MEAN_ELEMENT_THEORY": "SGP4",
    "EPOCH": "2012-08-26T03:23:23.584416",
    "MEAN_MOTION": "15.84611035",
    "ECCENTRICITY": "0.00128230",
    "INCLINATION": "86.3177",
    "RA_OF_ASC_NODE": "283.8990",
    "ARG_OF_PERICENTER": "251.7960",
    "MEAN_ANOMALY": "107.8651",
    "EPHEMERIS_TYPE": "0",
    "CLASSIFICATION_TYPE": "U",
    "NORAD_CAT_ID": "34516",
    "ELEMENT_SET_NO": "999",
    "REV_AT_EPOCH": "18606",
    "BSTAR": "0.00000000000000",
    "MEAN_MOTION_DOT": "0.00000095",
    "MEAN_MOTION_DDOT": "0.0000000000000",
    "SEMIMAJOR_AXIS": "6695.561",
    "PERIOD": "90.874",
    "APOAPSIS": "326.012",
    "PERIAPSIS": "308.840",
    "OBJECT_TYPE": "DEBRIS",
    "RCS_SIZE": "SMALL",
    "COUNTRY_CODE": "US",
    "LAUNCH_DATE": "1997-09-14",
    "SITE": "TTMTR",
    "DECAY_DATE": "2012-08-26",
    "FILE": "1341248",
    "GP_ID": "90287985",
    "TLE_LINE0": "0 IRIDIUM 33 DEB",
    "TLE_LINE1": "1 34516U 97051HH  12239.14124519  .00000095  00000-0  00000+0 0  9998",
    "TLE_LINE2": "2 34516 086.3177 283.8990 0012823 251.7960 107.8651 15.84611035186061"
  },
  {
    "CCSDS_OMM_VERS": "3.0",
    "COMMENT": "GENERATED VIA SPACE-TRACK.ORG API",
    "CREATION_DATE": "2023-01-08T07:06:14",
    "ORIGINATOR": "18 SPCS",
    "OBJECT_NAME": "IRIDIUM 33 DEB",
    "OBJECT_ID": "1997-051HJ",
    "CENTER_NAME": "EARTH",
    "REF_FRAME": "TEME",
    "TIME_SYSTEM": "UTC",
    "MEAN_ELEMENT_THEORY": "SGP4",
    "EPOCH": "2023-01-07T21:13:48.917280",
    "MEAN_MOTION": "15.94709295",
    "ECCENTRICITY": "0.00043910",
    "INCLINATION": "86.3064",
    "RA_OF_ASC_NODE": "45.6724",
    "ARG_OF_PERICENTER": "81.1858",
    "MEAN_ANOMALY": "278.9923",
    "EPHEMERIS_TYPE": "0",
    "CLASSIFICATION_TYPE": "U",
    "NORAD_CAT_ID": "34517",
    "ELEMENT_SET_NO": "999",
    "REV_AT_EPOCH": "74073",
    "BSTAR": "0.02290200000000",
    "MEAN_MOTION_DOT": "0.06699198",
    "MEAN_MOTION_DDOT": "0.0712730000000",
    "SEMIMAJOR_AXIS": "6667.262",
    "PERIOD": "90.299",
    "APOAPSIS": "292.054",
    "PERIAPSIS": "286.199",
    "OBJECT_TYPE": "DEBRIS",
    "RCS_SIZE": "SMALL",
    "COUNTRY_CODE": "US",
    "LAUNCH_DATE": "1997-09-14",
    "SITE": "TTMTR",
    "DECAY_DATE": "2023-01-08",
    "FILE": "3735731",
    "GP_ID": "222432525",
    "TLE_LINE0": "0 IRIDIUM 33 DEB",
    "TLE_LINE1": "1 34517U 97051HJ  23007.88459395  .06699198  71273-1  22902-1 0  9990",
    "TLE_LINE2": "2 34517  86.3064  45.6724 0004391  81.1858 278.9923 15.94709295740737"
  },
  {
    "CCSDS_OMM_VERS": "3.0",
    "COMMENT": "GENERATED VIA SPACE-TRACK.ORG API",
    "CREATION_DATE": "2022-10-24T23:56:13",
    "ORIGINATOR": "18 SPCS",
    "OBJECT_NAME": "IRIDIUM 33 DEB",
    "OBJECT_ID": "1997-051HK",
    "CENTER_NAME": "EARTH",
    "REF_FRAME": "TEME",
    "TIME_SYSTEM": "UTC",
    "MEAN_ELEMENT_THEORY": "SGP4",
    "EPOCH": "2022-10-24T15:23:39.958080",
    "MEAN_MOTION": "15.79704985",
    "ECCENTRICITY": "0.00206160",
    "INCLINATION": "86.3805",
    "RA_OF_ASC_NODE": "103.4518",
    "ARG_OF_PERICENTER": "337.6740",
    "MEAN_ANOMALY": "22.3635",
    "EPHEMERIS_TYPE": "0",
    "CLASSIFICATION_TYPE": "U",
    "NORAD_CAT_ID": "34518",
    "ELEMENT_SET_NO": "999",
    "REV_AT_EPOCH": "72805",
    "BSTAR": "0.02079600000000",
    "MEAN_MOTION_DOT": "0.04650340",
    "MEAN_MOTION_DDOT": "0.0000000000000",
    "SEMIMAJOR_AXIS": "6709.413",
    "PERIOD": "91.156",
    "APOAPSIS": "345.110",
    "PERIAPSIS": "317.446",
    "OBJECT_TYPE": "DEBRIS",
    "RCS_SIZE": "SMALL",
    "COUNTRY_CODE": "US",
    "LAUNCH_DATE": "1997-09-14",
    "SITE": "TTMTR",
    "DECAY_DATE": "2022-10-27",
    "FILE": "3631711",
    "GP_ID": "216045944",
    "TLE_LINE0": "0 IRIDIUM 33 DEB",
    "TLE_LINE1": "1 34518U 97051HK  22297.64143470  .04650340  00000-0  20796-1 0  9991",
    "TLE_LINE2": "2 34518  86.3805 103.4518 0020616 337.6740  22.3635 15.79704985728058"
  },
  {
    "CCSDS_OMM_VERS": "3.0",
    "COMMENT": "GENERATED VIA SPACE-TRACK.ORG API",
    "CREATION_DATE": "2011-11-22T17:09:45",
    "ORIGINATOR": "18 SPCS",
    "OBJECT_NAME": "IRIDIUM 33 DEB",
    "OBJECT_ID": "1997-051HL",
    "CENTER_NAME": "EARTH",
    "REF_FRAME": "TEME",
    "TIME_SYSTEM": "UTC",
    "MEAN_ELEMENT_THEORY": "SGP4",
    "EPOCH": "2011-11-20T05:38:23.100575",
    "MEAN_MOTION": "15.33940974",
    "ECCENTRICITY": "0.00293930",
    "INCLINATION": "86.2935",
    "RA_OF_ASC_NODE": "43.9017",
    "ARG_OF_PERICENTER": "321.2550",
    "MEAN_ANOMALY": "38.4386",
    "EPHEMERIS_TYPE": "0",
    "CLASSIFICATION_TYPE": "U",
    "NORAD_CAT_ID": "34519",
    "ELEMENT_SET_NO": "999",
    "REV_AT_EPOCH": "14471",
    "BSTAR": "0.09082700000000",
    "MEAN_MOTION_DOT": "0.03391547",
    "MEAN_MOTION_DDOT": "0.0000000000000",
    "SEMIMAJOR_AXIS": "6842.209",
    "PERIOD": "93.875",
    "APOAPSIS": "484.185",
    "PERIAPSIS": "443.962",
    "OBJECT_TYPE": "DEBRIS",
    "RCS_SIZE": "SMALL",
    "COUNTRY_CODE": "US",
    "LAUNCH_DATE": "1997-09-14",
    "SITE": "TTMTR",
    "DECAY_DATE": "2011-11-25",
    "FILE": "1193083",
    "GP_ID": "86011179",
    "TLE_LINE0": "0 IRIDIUM 33 DEB",
    "TLE_LINE1": "1 34519U 97051HL  11324.23498959  .03391547  00000-0  90827-1 0  9993",
    "TLE_LINE2": "2 34519 086.2935 043.9017 0029393 321.2550 038.4386 15.33940974144719"
  }
]